OBJECT_NAME,OBJECT_ID,EPOCH,MEAN_MOTION,ECCENTRICITY,INCLINATION,RA_OF_ASC_NODE,ARG_OF_PERICENTER,MEAN_ANOMALY,EPHEMERIS_TYPE,CLASSIFICATION_TYPE,NORAD_CAT_ID,ELEMENT_SET_NO,REV_AT_EPOCH,BSTAR,MEAN_MOTION_DOT,MEAN_MOTION_DDOT
GSAT-16,2014-078A,2026-06-16T22:51:21.275712,1.00269885,.0007518,0.0894,89.5968,0.1624,213.3707,0,U,40332,999,4210,0,.82E-6,0
DIRECTV 14,2014-078B,2026-06-17T06:32:56.740416,1.00271220,.00003214,0.0129,24.2371,314.8750,285.4151,0,U,40333,999,4204,0,-.129E-5,0
YAMAL 401,2014-082A,2026-06-16T22:28:44.121792,1.00271664,.00001858,0.0177,344.6722,320.3413,27.3311,0,U,40345,999,4191,0,0,0
ASTRA 2G,2014-089A,2026-06-16T18:16:52.891392,1.00273481,.00044926,0.0457,355.1085,74.8046,137.5451,0,U,40364,999,4196,0,.147E-5,0
FENGYUN 2G,2014-090A,2026-06-17T15:32:09.989376,1.00271870,.0004011,5.6406,72.8090,158.0660,7.7497,0,U,40367,999,4200,0,-.31E-5,0
MUOS-3,2015-002A,2026-06-16T19:47:06.209088,1.00271526,.0051932,4.5200,43.5218,178.0553,324.8552,0,U,40374,999,4158,0,-.134E-5,0
INMARSAT 5-F2,2015-005A,2026-06-17T09:59:09.325824,1.00272410,.00006741,0.0182,357.3926,314.3340,48.7375,0,U,40384,999,4099,0,-.29E-5,0
ABS-3A,2015-010A,2026-06-16T22:04:38.847648,1.00277277,.00018318,0.0018,358.9464,29.3198,205.0835,0,U,40424,999,4137,0,-.28E-6,0
EUTELSAT 115 WEST B,2015-010B,2026-06-16T15:53:24.508608,1.00271614,.0000407,0.0235,172.8214,258.4074,317.1455,0,U,40425,999,4138,0,-.27E-6,0
EXPRESS-AM7,2015-012A,2026-06-16T18:20:15.068256,1.00270291,.00028423,0.0173,13.7213,77.8317,128.5147,0,U,40505,999,4100,0,.148E-5,0
BEIDOU-3S IGSO-1S,2015-019A,2026-06-16T16:24:52.902432,1.00249872,.00390734,49.1964,295.4674,191.1195,116.0543,0,U,40549,999,4106,0,-.175E-5,0
THOR 7,2015-022A,2026-06-16T16:25:58.886112,1.00272519,.00023461,0.0303,241.4405,202.6902,66.6659,0,U,40613,999,4081,0,-.1E-6,0
TURKMENALEM52E/MONACOSAT,2015-023A,2026-06-16T22:20:56.474880,1.00270789,.00026595,0.0366,75.3053,4.0234,213.1031,0,U,40617,999,4084,0,.101E-5,0
DIRECTV 15,2015-026A,2026-06-17T07:53:03.162912,1.00267948,.00004284,0.0158,26.3598,291.9387,322.6677,0,U,40663,999,4046,0,-.106E-5,0
SKY MEXICO-1,2015-026B,2026-06-17T09:44:38.705856,1.00270113,.00020586,0.0167,15.9667,91.4728,225.5763,0,U,40664,999,4045,0,-.239E-5,0
METEOSAT-11 (MSG-4),2015-034A,2026-06-16T18:11:38.091264,1.00280240,.00017513,3.2002,71.1126,11.1942,105.2805,0,U,40732,999,721,0,.61E-6,0
STAR ONE C4,2015-034B,2026-06-17T05:41:07.726272,1.00269487,.00019791,0.0213,349.2112,88.4661,203.0931,0,U,40733,999,4001,0,-.269E-5,0
WGS F7 (USA 263),2015-036A,2026-06-16T17:16:08.560992,1.00271823,.0000407,0.0385,49.1303,153.3663,136.4953,0,U,40746,999,3986,0,0,0
INTELSAT 34 (IS-34),2015-039A,2026-06-17T05:58:43.999104,1.00269802,.00004959,0.0104,347.3582,340.7484,331.5954,0,U,40874,999,3963,0,-.289E-5,0
EUTELSAT 8 WEST B,2015-039B,2026-06-16T22:04:38.847648,1.00271383,.00039869,0.0636,345.4140,97.3781,145.5569,0,U,40875,999,3965,0,-.69E-6,0
GSAT-6,2015-041A,2026-06-16T17:01:09.951744,1.00272192,.00033162,1.9181,82.6023,357.2240,162.9762,0,U,40880,999,3959,0,-.164E-5,0
INMARSAT 5-F3,2015-042A,2026-06-16T19:00:06.454368,1.00269621,.00001102,0.0176,11.5323,357.8928,0.2857,0,U,40882,999,3956,0,.47E-6,0
MUOS-4,2015-044A,2026-06-17T03:22:21.761760,1.00271047,.00578878,4.3302,42.2493,2.1462,346.5764,0,U,40887,999,3955,0,-.98E-6,0
TJS-1,2015-046A,2026-06-17T12:26:38.820768,1.00270831,.00055114,0.3251,84.9048,359.5931,162.9928,0,U,40892,999,3957,0,-.161E-5,0
EXPRESS-AM8,2015-048A,2026-06-17T02:13:34.006080,1.00271066,.00005689,0.0143,297.1564,10.6854,336.8957,0,U,40895,999,3934,0,-.115E-5,0
BEIDOU-3S IGSO-2S,2015-053A,2026-06-17T15:18:28.157760,1.00258664,.00656307,49.2206,258.7767,192.0254,139.8497,0,U,40938,999,3935,0,-.132E-5,0
SKY MUSTER 1 (NBN1A),2015-054A,2026-06-16T20:31:29.684352,1.00268488,.00015957,0.0246,346.3345,98.3893,268.5032,0,U,40940,999,3925,0,0,0
ARSAT 2,2015-054B,2026-06-17T09:44:38.705856,1.00270605,.00019701,0.0370,60.8639,8.9261,261.0275,0,U,40941,999,3930,0,-.229E-5,0
MORELOS 3,2015-056A,2026-06-17T09:16:33.560256,1.00273372,.00010557,3.1869,15.0747,6.5920,270.0352,0,U,40946,999,3928,0,-.49E-6,0
APSTAR-9,2015-059A,2026-06-16T20:31:59.635776,1.00271682,.00022686,0.0333,47.3885,141.0695,166.6728,0,U,40982,999,3911,0,-.269E-5,0
TURKSAT 4B,2015-060A,2026-06-16T22:17:44.931264,1.00272586,.00020875,0.0126,304.3103,126.1723,219.1238,0,U,40984,999,3909,0,.112E-5,0
ZHONGXING-2C,2015-063A,2026-06-17T01:28:38.562816,1.00270847,.0007635,0.2733,89.7945,99.3593,201.7836,0,U,41021,999,3897,0,-.327E-5,0
