GSAT-16                 
1 40332U 14078A   26167.95232958  .00000082  00000+0  00000+0 0  9995
2 40332   0.0894  89.5968 0007518   0.1624 213.3707  1.00269885 42103
DIRECTV 14              
1 40333U 14078B   26168.27287894 -.00000129  00000+0  00000+0 0  9994
2 40333   0.0129  24.2371 0000321 314.8750 285.4151  1.00271220 42041
YAMAL 401               
1 40345U 14082A   26167.93662178  .00000000  00000+0  00000+0 0  9993
2 40345   0.0177 344.6722 0000185 320.3413  27.3311  1.00271664 41910
ASTRA 2G                
1 40364U 14089A   26167.76172328  .00000147  00000+0  00000+0 0  9997
2 40364   0.0457 355.1085 0004492  74.8046 137.5451  1.00273481 41962
FENGYUN 2G              
1 40367U 14090A   26168.64733784 -.00000310  00000+0  00000+0 0  9992
2 40367   5.6406  72.8090 0004011 158.0660   7.7497  1.00271870 42007
MUOS-3                  
1 40374U 15002A   26167.82437742 -.00000134  00000+0  00000+0 0  9992
2 40374   4.5200  43.5218 0051932 178.0553 324.8552  1.00271526 41584
INMARSAT 5-F2           
1 40384U 15005A   26168.41608016 -.00000290  00000+0  00000+0 0  9999
2 40384   0.0182 357.3926 0000674 314.3340  48.7375  1.00272410 40995
ABS-3A                  
1 40424U 15010A   26167.91989407 -.00000028  00000+0  00000+0 0  9999
2 40424   0.0018 358.9464 0001831  29.3198 205.0835  1.00277277 41370
EUTELSAT 115 WEST B     
1 40425U 15010B   26167.66208922 -.00000027  00000+0  00000+0 0  9997
2 40425   0.0235 172.8214 0000407 258.4074 317.1455  1.00271614 41387
EXPRESS-AM7             
1 40505U 15012A   26167.76406329  .00000148  00000+0  00000+0 0  9993
2 40505   0.0173  13.7213 0002842  77.8317 128.5147  1.00270291 41008
BEIDOU-3S IGSO-1S       
1 40549U 15019A   26167.68394563 -.00000175  00000+0  00000+0 0  9996
2 40549  49.1964 295.4674 0039073 191.1195 116.0543  1.00249872 41067
THOR 7                  
1 40613U 15022A   26167.68470933 -.00000010  00000+0  00000+0 0  9996
2 40613   0.0303 241.4405 0002346 202.6902  66.6659  1.00272519 40816
TURKMENALEM52E/MONACOSAT
1 40617U 15023A   26167.93120920  .00000101  00000+0  00000+0 0  9997
2 40617   0.0366  75.3053 0002659   4.0234 213.1031  1.00270789 40844
DIRECTV 15              
1 40663U 15026A   26168.32850883 -.00000106  00000+0  00000+0 0  9999
2 40663   0.0158  26.3598 0000428 291.9387 322.6677  1.00267948 40465
SKY MEXICO-1            
1 40664U 15026B   26168.40600354 -.00000239  00000+0  00000+0 0  9992
2 40664   0.0167  15.9667 0002058  91.4728 225.5763  1.00270113 40454
METEOSAT-11 (MSG-4)     
1 40732U 15034A   26167.75807976  .00000061  00000+0  00000+0 0  9995
2 40732   3.2002  71.1126 0001751  11.1942 105.2805  1.00280240  7213
STAR ONE C4             
1 40733U 15034B   26168.23689498 -.00000269  00000+0  00000+0 0  9998
2 40733   0.0213 349.2112 0001979  88.4661 203.0931  1.00269487 40016
WGS F7 (USA 263)        
1 40746U 15036A   26167.71954353  .00000000  00000+0  00000+0 0  9993
2 40746   0.0385  49.1303 0000407 153.3663 136.4953  1.00271823 39868
INTELSAT 34 (IS-34)     
1 40874U 15039A   26168.24912036 -.00000289  00000+0  00000+0 0  9999
2 40874   0.0104 347.3582 0000495 340.7484 331.5954  1.00269802 39639
EUTELSAT 8 WEST B       
1 40875U 15039B   26167.91989407 -.00000069  00000+0  00000+0 0  9995
2 40875   0.0636 345.4140 0003986  97.3781 145.5569  1.00271383 39656
GSAT-6                  
1 40880U 15041A   26167.70914296 -.00000164  00000+0  00000+0 0  9991
2 40880   1.9181  82.6023 0003316 357.2240 162.9762  1.00272192 39592
INMARSAT 5-F3           
1 40882U 15042A   26167.79174137  .00000047  00000+0  00000+0 0  9994
2 40882   0.0176  11.5323 0000110 357.8928   0.2857  1.00269621 39569
MUOS-4                  
1 40887U 15044A   26168.14052965 -.00000098  00000+0  00000+0 0  9992
2 40887   4.3302  42.2493 0057887   2.1462 346.5764  1.00271047 39554
TJS-1                   
1 40892U 15046A   26168.51850487 -.00000161  00000+0  00000+0 0  9997
2 40892   0.3251  84.9048 0005511 359.5931 162.9928  1.00270831 39579
EXPRESS-AM8             
1 40895U 15048A   26168.09275470 -.00000115  00000+0  00000+0 0  9997
2 40895   0.0143 297.1564 0000568  10.6854 336.8957  1.00271066 39346
BEIDOU-3S IGSO-2S       
1 40938U 15053A   26168.63782590 -.00000132  00000+0  00000+0 0  9996
2 40938  49.2206 258.7767 0065630 192.0254 139.8497  1.00258664 39357
SKY MUSTER 1 (NBN1A)    
1 40940U 15054A   26167.85520468  .00000000  00000+0  00000+0 0  9990
2 40940   0.0246 346.3345 0001595  98.3893 268.5032  1.00268488 39251
ARSAT 2                 
1 40941U 15054B   26168.40600354 -.00000229  00000+0  00000+0 0  9990
2 40941   0.0370  60.8639 0001970   8.9261 261.0275  1.00270605 39304
MORELOS 3               
1 40946U 15056A   26168.38649954 -.00000049  00000+0  00000+0 0  9993
2 40946   3.1869  15.0747 0001055   6.5920 270.0352  1.00273372 39285
APSTAR-9                
1 40982U 15059A   26167.85555134 -.00000269  00000+0  00000+0 0  9997
2 40982   0.0333  47.3885 0002268 141.0695 166.6728  1.00271682 39110
TURKSAT 4B              
1 40984U 15060A   26167.92899226  .00000112  00000+0  00000+0 0  9998
2 40984   0.0126 304.3103 0002087 126.1723 219.1238  1.00272586 39097
ZHONGXING-2C            
1 41021U 15063A   26168.06155744 -.00000327  00000+0  00000+0 0  9999
2 41021   0.2733  89.7945 0007635  99.3593 201.7836  1.00270847 38979
